#dP2023  2 24  0  0  0.00000000      96 __u+U IGS14 FIT  IAC
## 2250 432000.00000000   900.00000000 59999 0.0000000000000
+  119   C06C07C08C09C10C11C12C13C14C16C19C20C21C22C23C24C25
+        C26C27C28C29C30C32C33C34C35C36C37C38C39C40C41C42C43
+        C44C45C46E01E02E03E04E05E07E08E09E10E11E12E14E15E18
+        E19E21E24E25E26E27E30E31E33E34E36G01G02G03G04G05G06
+        G07G08G09G10G11G12G13G14G15G16G17G18G19G20G21G22G23
+        G24G25G26G27G28G29G30G31G32J02J03J04R01R02R03R04R05
+        R07R08R09R11R12R13R14R15R16R17R18R19R20R21R22R24R25
++         9  9  9  9  9  9 10  9  9  9  8  8  8  8  7  8  7
++         8  8  8  8  8  8  8  8  8  8 11  8  8  8  8  8  8
++         8  8  8  5  4  4  4  4  4  4  4  4  4  5  5  4  4
++         4  4  4  4  5  4  4  4  5  4  4  4  4  3  3  4  4
++         4  4  3  4  3  3  4  4  4  4  3  4  3  4  4  4  4
++         3  3  3  4  3  3  4  3  3  9  9 10  8  7  7  7  7
++         7  7  7  7  7  8  6  7  7  6  6  8  8  7  7  6  8
%c M  cc GPS ccc cccc cccc cccc cccc ccccc ccccc ccccc ccccc
%c cc cc ccc ccc cccc cccc cccc cccc ccccc ccccc ccccc ccccc
%f  1.2500000  1.025000000  0.00000000000  0.000000000000000
%f  0.0000000  0.000000000  0.00000000000  0.000000000000000
%i    0    0    0    0      0      0      0      0         0
%i    0    0    0    0      0      0      0      0         0
/* INFORMATION & ANALYSIS CENTER (IAC)            FINAL DATA
/* S/V CLOCKS ARE ALIGNED TO GNSS TIME                      
/* G:C1WC2W R:C1PC2P E:C1XC5X C:C2IC6I J:C1CC2S             
/* PCV:IGS20_2247 OL/AL:FES2004  NONE     YN ORB:CoN CLK:CoN
*  2023 02 24 14 30  0.00000000
PC06 -17938.909845  26539.226005 -27537.582445   -192.642971
PC07  -9557.119424  40348.867934  -7072.707175     67.052729
PC08    847.376811  25472.030053  33643.467676    524.021579
PC09  -9113.550652  25911.969801 -31738.454165    806.037739
PC10  -3908.698696  41692.966789   -591.572386      4.272204
PC11  16356.006935   7596.028892  21368.783539   -102.439184
PC12  -2185.124780  17317.632334  21812.180220    471.170491
PC13   6031.800183  28769.955256  30496.823597    215.439225
PC14  12351.538453  16609.192019 -18668.233112    517.822572
PC16 -20017.716344  25950.096841 -26471.892930    154.274721
PC19 -15207.941132  -6350.937847  22552.163541   -894.680128
PC20  -8378.749802 -23109.111036  13255.019085    708.766754
PC21  -4120.553245  27165.326798   4834.049169   -909.823476
PC22 -13619.955401  14878.286906  19277.737272   -616.378935
PC23  19512.990007  -4406.228020  19454.866506   -880.763721
PC24  15459.479062  19860.280751 -12104.946547   -369.997232
PC25  25416.643633   9694.789646   6263.909280     77.454430
PC26  -1089.611483  17490.893916 -21742.418589    -83.351912
PC27  10867.922897 -19130.971398 -17173.668125    101.604289
PC28  23832.243521 -14320.280423  -2372.893862     74.149956
PC29 -23269.598289    993.448022 -15381.968124     85.430987
PC30  -8408.666604 -13568.685938 -22895.868738      1.061497
PC32   3914.827830 -27204.320181  -4845.297677   -613.872014
PC33  15242.367992   6338.291764 -22487.889608   -871.828864
PC34   9624.490172  12872.311255  22800.789200    113.279666
PC35 -23794.809970  14572.927337   1241.279907    674.985990
PC36 -25113.783874 -10772.396719  -5619.033827   -603.820046
PC37   3042.244689 -16786.505137  22085.009338   -814.101520
PC38  -8571.620910  22222.633252  34844.591206     60.958180
PC39 -25156.347753  26321.918363 -21416.399264     -1.935483
PC40 -14962.175709  37959.508848 -10152.907454    -15.953244
PC41  13758.214851 -14350.179381 -19528.476664   -650.629339
PC42   7679.527142  23904.474675 -12108.444532   -819.177387
PC43  22916.457268   -197.292883  15896.101098      8.785737
PC44 -10364.514889  19624.107107  16929.159628     25.504138
PC45 -19147.995388   4678.014428 -19752.325500    -64.554171
PC46 -16857.458442 -19471.752076  10683.630151    -35.668282
PE01 -18217.811745   -668.824871 -23323.895761   -600.003118
PE02  18069.098567    197.588016  23438.859021     22.737798
PE03  21507.661351 -11526.286660 -16760.908988   -653.223903
PE04 -16022.323234  24890.691474   -146.649071    -65.309362
PE05  14459.542625   8966.711176 -24216.534621    -92.237959
PE07   1032.562798 -23974.990207  17340.067002    -25.354752
PE08  16058.332533 -24870.684946     -2.869060    -41.357648
PE09  -1233.151879  23998.294075 -17272.832045   -847.577933
PE10  -5103.231725  15619.719948  24617.978650   -514.726935
PE11   7439.959222  15839.796548  23863.963293   1013.685373
PE12 -15735.289912  13090.540487  21393.920993   -434.366229
PE14  -2926.364658 -24223.024615 -21207.965299    151.352368
PE15  16023.794274 -12925.663821 -21254.192591     -3.334455
PE18   8199.366949  13530.886631  17980.937730   -353.273361
PE19 -21240.475413   8921.626771  18597.447303  -3155.513877
PE21 -19189.344194 -18609.157296 -12712.536953   -514.032123
PE24   8582.148649  27527.501293  -6776.494299  -1132.019689
PE25  19110.646258  18889.644901  12425.453785   -600.065912
PE26 -25426.646197  -9150.606075 -12078.428109     27.873076
PE27  -9297.258225 -27448.894742   5981.665185   -520.141530
PE30   6567.470002 -19526.712180  21231.301477  -1268.651528
PE31  -5960.429774  20041.261239 -20956.102160   -516.912877
PE33 -28925.219388   2400.171863   5857.783467   -451.103449
PE34  28872.618144  -2550.350582  -6007.062518    -31.776841
PE36  24919.790827   9462.314442  12860.998559    -17.242691
PG01 -15287.016428 -13531.904792 -17498.990147    209.014414
PG02  18241.359062  11535.463888  15945.535069   -618.638479
PG03 -12875.567746 -22964.871452   3831.606385   -359.040716
PG04  -7356.649988 -14361.027215  21086.199164    -20.492653
PG05   3427.423779  23884.266203  10795.191344   -117.154495
PG06 -22233.281445   6175.439433  13304.979597    575.873663
PG07 -25010.444796  -7531.248852   6519.851903    234.924040
PG08   2454.343381 -21720.237966 -14866.859210   -110.045482
PG09 -15706.657002  -3516.640447  21061.093672   -212.192630
PG10  14936.109332  -2400.590663 -21684.661709    -26.063368
PG11 -10142.194695  12976.280245  20841.760383   -113.062643
PG12  10179.748003  24487.062876   1964.808099   -344.243260
PG13 -11006.466295  21708.013816 -10570.052595    481.224822
PG14 -16352.756427   -510.112821 -20939.893061    -19.348952
PG15    881.191131  21974.835764 -15150.447402     16.278881
PG16   1313.525803 -23041.883592  12417.761913   -518.576897
PG17 -20259.646207   9524.982974 -13937.356207    701.998738
PG18  26086.122087   4916.242850   2240.232200   -154.166082
PG19 -20063.058007  16322.183161  -5584.977454    282.017668
PG20  -4126.128026  18421.032833  18797.820058    448.718655
PG21  -7529.722010 -14508.298054 -20513.175960    154.149686
PG22  18162.471840 -19142.213251  -1591.070719    433.508407
PG23  17686.855293   9793.821430 -17295.862551      7.597269
PG24  11575.643536  14627.360722 -19403.207804    -87.207107
PG25  16237.667096  18403.771317  10183.523226    422.795056
PG26   9942.107135 -13553.317762  20381.072168    241.724223
PG27  11752.817243 -22890.065739  -5853.703034     94.787060
PG28  23234.019655  -6140.601862  11271.163910     24.537718
PG29  12901.184805   7615.025030  21887.476521   -587.837345
PG30 -25928.208320   1392.946642  -6114.521843   -529.186311
PG31  21321.779907  -7315.104419  14228.916414   -210.104052
PG32  19686.327894 -12632.512701 -12220.961485   -405.884299
PJ02 -20762.152760  22761.592807 -24214.249073     -1.000266
PJ03 -30546.304611  26667.172813  16568.546952      0.450143
PJ04 -27147.347573  29027.167292  20255.992600     94.224642
PR01 -11690.473901   4596.142944  22204.442304     23.635702
PR02  -9801.638847  21156.479638  10469.462180    -23.232703
PR03  -1980.654188  24501.004452  -6877.836420     73.086762
PR04   6455.207766  14185.319206 -20165.092201    177.049709
PR05  11547.968722  -3751.888375 -22413.433607    108.282670
PR07   1498.790249 -24223.700072   7812.768758     50.562152
PR08  -6776.381479 -13940.261123  20310.621578    -69.590550
PR09   6775.170046  -9112.703334  22854.900341    105.865020
PR11 -18846.529994 -17173.757724    953.493915     -8.982109
PR12 -18454.158265  -5845.463136 -16582.413030     25.232303
PR13  -8223.090347   7478.670591 -22979.956000    -32.371169
PR14   8600.287052  17954.910381 -15934.662114     24.371324
PR15  19055.560288  16956.258280    234.173359     90.848159
PR16  18565.547339   6029.579261  16405.530608     11.659150
PR17  -2522.212011  11562.134175  22602.822286    607.660040
PR18  14377.375394   5198.951344  20416.924185     68.435477
PR19  23786.138338  -2441.353561   8880.196968   -223.067510
PR20  19921.154002 -10787.510929 -11664.023480    -88.281301
PR21    845.895256 -11075.561275 -22961.862431   -375.786038
PR22 -15108.628115  -5594.851897 -19754.728451     72.333291
PR24 -19076.554636  11812.232845  12146.530171    149.179189
PR25   3358.478839 -11779.946777 -22369.775798     56.010873
EOF
